2022-058A               
1 52785U 22058A   22175.79937530  .00001652  00000+0  21116-3 0  9991
2 52785  49.9965 155.3922 0012291  11.3359 348.7861 14.86419914  3372
2022-058B               
1 52786U 22058B   22175.79763386  .00000742  00000+0  10906-3 0  9992
2 52786  50.0023 155.3919 0012161  14.2645 345.8637 14.86522055  3351
2022-058C               
1 52787U 22058C   22175.79642361  .00001721  00000+0  21778-3 0  9999
2 52787  49.9915 155.3626 0012818  14.3803 345.7499 14.86614151  3354
2022-058D               
1 52788U 22058D   22175.79417381  .00001714  00000+0  21633-3 0  9994
2 52788  50.0067 155.3783 0013016  17.0791 343.0587 14.86763498  3355
2022-058E               
1 52789U 22058E   22175.79226063  .00000935  00000+0  12955-3 0  9991
2 52789  49.9907 155.3338 0014079  17.7085 342.4346 14.86873412  3359
2022-058F               
1 52790U 22058F   22175.78823131  .00000870  00000+0  12168-3 0  9995
2 52790  50.0078 155.3439 0014219  22.7327 337.4248 14.87141075  3355
2022-058G               
1 52791U 22058G   22175.78601754  .00001776  00000+0  22029-3 0  9994
2 52791  49.9918 155.2969 0015290  23.4947 336.6694 14.87299382  3350
2022-058H               
1 52792U 22058H   22175.78286080  .00001058  00000+0  14119-3 0  9990
2 52792  49.9962 155.2864 0016146  25.0412 335.1305 14.87497255  3352
2022-058J               
1 52793U 22058J   22175.84814883  .00001051  00000+0  14001-3 0  9999
2 52793  50.0016 154.9715 0016376  27.4146 332.7678 14.87619487  3395
CZ-2C R/B               
1 52794U 22058K   22175.83125206  .00002451  00000+0  14596-3 0  9997
2 52794  50.1765 151.8504 0103763 129.5420 231.4769 15.10826339  3407
PROGRESS-MS 20          
1 52795U 22059A   22175.54984122  .00007085  00000+0  13265-3 0  9997
2 52795  51.6439 300.1193 0004111 298.6700 148.9467 15.49857103346324
SHENZHOU 14             
1 52797U 22060A   22175.38973656  .00012762  00000+0  15430-3 0  9997
2 52797  41.4702 175.1296 0003636 317.8871 187.3473 15.60491620 65899
NILESAT 301             
1 52817U 22061A   22175.59841049 -.00000078  00000+0  00000+0 0  9995
2 52817   0.0322 319.0896 0000556 260.3728 258.4187  1.00271809   173
FALCON 9 R/B            
1 52818U 22061B   22174.91424088  .00000278  00000+0  47486-3 0  9995
2 52818  18.6971  41.0410 7695403 186.7468 147.3290  1.75865738   266
STARLINK-4091           
1 52830U 22062A   22175.83334491 -.00816044  20215-3 -30249-2 0  9990
2 52830  53.2173   9.1421 0023097  59.3511 350.3609 15.86928492  1655
STARLINK-4089           
1 52831U 22062B   22175.83334491 -.00816142  20213-3 -30292-2 0  9996
2 52831  53.2173   9.1447 0023256  59.0640 349.8474 15.86896000  1653
STARLINK-4083           
1 52832U 22062C   22175.83334491 -.00816256  20220-3 -30317-2 0  9999
2 52832  53.2173   9.1434 0022653  59.0186 350.1907 15.86905899  1647
STARLINK-4086           
1 52833U 22062D   22175.83334491 -.00815955  20209-3 -30278-2 0  9998
2 52833  53.2173   9.1436 0022830  59.0768 350.3719 15.86917467  1156
STARLINK-4108           
1 52834U 22062E   22175.83334491 -.00815989  20215-3 -30242-2 0  9994
2 52834  53.2173   9.1419 0022901  59.0499 350.9223 15.86939514  1151
STARLINK-4080           
1 52835U 22062F   22175.83334491 -.00815919  20213-3 -30207-2 0  9997
2 52835  53.2173   9.1422 0023170  59.3291 350.9040 15.86950489  1159
STARLINK-4043           
1 52836U 22062G   22175.83334491 -.00815821  20211-3 -30212-2 0  9994
2 52836  53.2173   9.1408 0022764  59.2900 351.2262 15.86960687  1159
STARLINK-4036           
1 52837U 22062H   22175.83334491 -.00815881  20220-3 -30199-2 0  9995
2 52837  53.2173   9.1399 0022170  59.1768 352.1212 15.86993724  1154
STARLINK-4092           
1 52838U 22062J   22175.83334491 -.00815733  20209-3 -30159-2 0  9995
2 52838  53.2173   9.1405 0023315  59.5607 351.2025 15.86972128  1642
STARLINK-4048           
1 52839U 22062K   22175.83334491 -.00815569  20210-3 -30130-2 0  9994
2 52839  53.2173   9.1388 0022595  59.3302 352.4822 15.87015752  1642
STARLINK-4049           
1 52840U 22062L   22175.83334491 -.00815881  20222-3 -30172-2 0  9992
2 52840  53.2173   9.1390 0022345  59.4320 352.1153 15.87005084  1642
STARLINK-4065           
1 52841U 22062M   22175.83334491 -.00815343  20206-3 -30038-2 0  9999
2 52841  53.2173   9.1374 0023182  59.6520 352.9369 15.87048678  1642
STARLINK-4046           
1 52842U 22062N   22175.83334491 -.00816012  20224-3 -30224-2 0  9991
2 52842  53.2173   9.1400 0022106  59.3145 351.7245 15.86982754  1649
STARLINK-4188           
1 52843U 22062P   22175.83334491 -.00815355  20211-3 -30014-2 0  9994
2 52843  53.2173   9.1363 0022997  59.6527 353.4012 15.87072386  1646
STARLINK-4208           
1 52844U 22062Q   22175.83334491 -.00815093  20191-3 -30050-2 0  9991
2 52844  53.2173   9.1381 0023363  59.7176 352.3326 15.87027189  1643
STARLINK-4168           
1 52845U 22062R   22175.83334491 -.00814997  20197-3 -29983-2 0  9993
2 52845  53.2173   9.1361 0023034  59.5784 353.7449 15.87082797  1647
STARLINK-4212           
1 52846U 22062S   22175.83334491 -.00815041  20195-3 -30035-2 0  9993
2 52846  53.2173   9.1369 0022733  59.3498 353.4562 15.87060848  1647
STARLINK-4206           
1 52847U 22062T   22175.83334491 -.00814439  20176-3 -29916-2 0  9999
2 52847  53.2173   9.1351 0023264  57.9858 355.8443 15.87104790  1642
STARLINK-4202           
1 52848U 22062U   22175.83334491 -.00815279  20201-3 -30043-2 0  9995
2 52848  53.2173   9.1377 0023305  59.8216 352.4713 15.87038832  1642
STARLINK-4197           
1 52849U 22062V   22175.83334491 -.00814633  20189-3 -29902-2 0  9996
2 52849  53.2173   9.1342 0023079  59.6567 354.7024 15.87126397  1644
STARLINK-4187           
1 52850U 22062W   22175.83334491 -.00815396  20217-3 -29974-2 0  9996
2 52850  53.2174   9.1353 0023145  59.9881 353.5808 15.87094373  1640
STARLINK-3809           
1 52851U 22062X   22175.83334491 -.00814595  20189-3 -29892-2 0  9994
2 52851  53.2173   9.1337 0022949  59.4118 355.2072 15.87137292  1641
STARLINK-4184           
1 52852U 22062Y   22175.83334491 -.00814904  20199-3 -29926-2 0  9998
2 52852  53.2173   9.1344 0023097  59.3709 354.7097 15.87116283  1648
STARLINK-4189           
1 52853U 22062Z   22175.83334491 -.00814652  20196-3 -29840-2 0  9991
2 52853  53.2173   9.1327 0023289  59.3699 355.7342 15.87160250  1648
STARLINK-4204           
1 52854U 22062AA  22175.83334491 -.00814845  20203-3 -29891-2 0  9991
2 52854  53.2173   9.1329 0022820  59.3133 355.5374 15.87149267  1642
STARLINK-4209           
1 52855U 22062AB  22175.83334491 -.00813724  20161-3 -29716-2 0  9996
2 52855  53.2173   9.1313 0023965  59.8088 356.0451 15.87193396  1645
STARLINK-4201           
1 52856U 22062AC  22175.83334491 -.00813585  20151-3 -29741-2 0  9999
2 52856  53.2173   9.1318 0024016  58.4003 356.9539 15.87170954  1642
STARLINK-4199           
1 52857U 22062AD  22175.83334491 -.00814016  20178-3 -29742-2 0  9990
2 52857  53.2173   9.1303 0023189  59.4228 356.9741 15.87214509  1647
STARLINK-4198           
1 52858U 22062AE  22175.83334491 -.00814069  20174-3 -29732-2 0  9994
2 52858  53.2173   9.1315 0024170  59.7851 355.8073 15.87182697  1645
STARLINK-4196           
1 52859U 22062AF  22175.83334491 -.00813028  20136-3 -29596-2 0  9995
2 52859  53.2172   9.1298 0024720  58.4179 358.2122 15.87225761  1647
STARLINK-4191           
1 52860U 22062AG  22175.83334491 -.00813812  20167-3 -29756-2 0  9990
2 52860  53.2173   9.1303 0023121  59.3062 356.8572 15.87202677  1646
STARLINK-4112           
1 52861U 22062AH  22175.83334491 -.00813531  20169-3 -29638-2 0  9990
2 52861  53.2173   9.1273 0022981  59.3738 358.5206 15.87281050  1641
STARLINK-4010           
1 52862U 22062AJ  22175.83334491 -.00814108  20186-3 -29728-2 0  9991
2 52862  53.2173   9.1289 0022924  59.3459 357.5540 15.87236763  1647
STARLINK-4270           
1 52863U 22062AK  22175.83334491 -.00813657  20170-3 -29678-2 0  9997
2 52863  53.2173   9.1284 0022925  59.4216 357.9608 15.87259298  1643
STARLINK-4267           
1 52864U 22062AL  22175.83334491 -.00813732  20171-3 -29674-2 0  9999
2 52864  53.2173   9.1284 0023334  59.4819 357.6688 15.87247635  1645
STARLINK-4274           
1 52865U 22062AM  22175.83334491 -.00813600  20176-3 -29602-2 0  9990
2 52865  53.2173   9.1264 0023070  59.2979 359.0867 15.87303631  1640
STARLINK-4272           
1 52866U 22062AN  22175.83334491 -.00813760  20177-3 -29644-2 0  9995
2 52866  53.2173   9.1275 0023289  59.6600 357.9740 15.87270430  1647
STARLINK-4126           
1 52867U 22062AP  22175.83334491 -.00813514  20176-3 -29563-2 0  9992
2 52867  53.2173   9.1254 0023139  59.1040 359.7966 15.87325229  1649
STARLINK-4261           
1 52868U 22062AQ  22175.83334491 -.00813640  20176-3 -29609-2 0  9994
2 52868  53.2173   9.1265 0023256  59.2855 358.8515 15.87292490  1640
STARLINK-4266           
1 52869U 22062AR  22175.83334491 -.00813550  20180-3 -29566-2 0  9992
2 52869  53.2173   9.1249 0022837  59.2462 359.9126 15.87336032  1642
STARLINK-4195           
1 52870U 22062AS  22175.83334491 -.00813508  20174-3 -29581-2 0  9997
2 52870  53.2173   9.1255 0023110  59.1616 359.4936 15.87314003  1644
STARLINK-4207           
1 52871U 22062AT  22175.83334491 -.00812638  20145-3 -29443-2 0  9996
2 52871  53.2173   9.1236 0023539  57.8541   2.0459 15.87368948  1649
STARLINK-4213           
1 52872U 22062AU  22175.83334491 -.00813070  20160-3 -29494-2 0  9991
2 52872  53.2173   9.1240 0023499  57.8120   1.6040 15.87346627  1644
STARLINK-4211           
1 52873U 22062AV  22175.83334491 -.00813290  20178-3 -29466-2 0  9994
2 52873  53.2173   9.1225 0023026  59.2575   1.1830 15.87390078  1645
STARLINK-4210           
1 52874U 22062AW  22175.83334491 -.00813443  20179-3 -29522-2 0  9999
2 52874  53.2173   9.1236 0022968  59.2716   0.3871 15.87358073  1644
